start=new Date('2023-03-25T00:00:00.000Z').valueOf();
sats=[{"BSTAR":"-0.08295300000000","GP_ID":"228825603","INCLINATION":"43.0005","OBJECT_NAME":"STARLINK-5366","LAUNCH_DATE":"2023-02-02","SITE":"AFETR","DECAY_DATE":null,"ARG_OF_PERICENTER":"254.8750","PERIOD":"95.564","MEAN_ANOMALY":"81.8231","MEAN_MOTION_DOT":"-0.01155963","PERIAPSIS":"544.920","TLE_LINE2":"2 55499  43.0005  91.1320 0001378 254.8750  81.8231 15.06836983  1308","TIME_SYSTEM":"UTC","COUNTRY_CODE":"US","SEMIMAJOR_AXIS":"6924.010","RCS_SIZE":"LARGE","OBJECT_TYPE":"PAYLOAD","OBJECT_ID":"2023-015BC","EPOCH":"2023-03-24T22:00:01.999584","ECCENTRICITY":"0.00013780","APOAPSIS":"546.829","RA_OF_ASC_NODE":"91.1320","FILE":"3870109","REV_AT_EPOCH":"130","MEAN_MOTION_DDOT":"0.0000000000000","REF_FRAME":"TEME","NORAD_CAT_ID":"55499","CLASSIFICATION_TYPE":"U","CENTER_NAME":"EARTH","TLE_LINE1":"1 55499U 23015BC  23083.91668981 -.01155963  00000-0 -82953-1 0  9997","MEAN_ELEMENT_THEORY":"SGP4","ELEMENT_SET_NO":"999","EPHEMERIS_TYPE":"0","MEAN_MOTION":"15.06836983"},{"MEAN_MOTION":"15.06111086","EPHEMERIS_TYPE":"0","TLE_LINE1":"1 55500U 23015BD  23083.91668981 -.01157741  00000-0 -84754-1 0  9997","ELEMENT_SET_NO":"999","MEAN_ELEMENT_THEORY":"SGP4","CENTER_NAME":"EARTH","CLASSIFICATION_TYPE":"U","REV_AT_EPOCH":"130","MEAN_MOTION_DDOT":"0.0000000000000","REF_FRAME":"TEME","NORAD_CAT_ID":"55500","RA_OF_ASC_NODE":"91.2605","APOAPSIS":"548.940","FILE":"3870109","OBJECT_TYPE":"PAYLOAD","OBJECT_ID":"2023-015BD","EPOCH":"2023-03-24T22:00:01.999584","ECCENTRICITY":"0.00012140","COUNTRY_CODE":"US","SEMIMAJOR_AXIS":"6926.234","RCS_SIZE":"LARGE","TIME_SYSTEM":"UTC","MEAN_ANOMALY":"18.2850","MEAN_MOTION_DOT":"-0.01157741","PERIAPSIS":"547.258","TLE_LINE2":"2 55500  43.0012  91.2605 0001214 265.0843  18.2850 15.06111086  1303","PERIOD":"95.610","ARG_OF_PERICENTER":"265.0843","DECAY_DATE":null,"LAUNCH_DATE":"2023-02-02","SITE":"AFETR","BSTAR":"-0.08475400000000","GP_ID":"228825354","OBJECT_NAME":"STARLINK-5141","INCLINATION":"43.0012"},{"CENTER_NAME":"EARTH","CLASSIFICATION_TYPE":"U","EPHEMERIS_TYPE":"0","MEAN_MOTION":"15.06544050","TLE_LINE1":"1 55501U 23015BE  23083.91668981 -.01156428  00000-0 -83656-1 0  9999","MEAN_ELEMENT_THEORY":"SGP4","ELEMENT_SET_NO":"999","OBJECT_ID":"2023-015BE","OBJECT_TYPE":"PAYLOAD","ECCENTRICITY":"0.00013180","EPOCH":"2023-03-24T22:00:01.999584","COUNTRY_CODE":"US","SEMIMAJOR_AXIS":"6924.907","RCS_SIZE":"LARGE","REV_AT_EPOCH":"130","MEAN_MOTION_DDOT":"0.0000000000000","NORAD_CAT_ID":"55501","REF_FRAME":"TEME","RA_OF_ASC_NODE":"91.1789","APOAPSIS":"547.685","FILE":"3870109","MEAN_ANOMALY":"57.2402","TLE_LINE2":"2 55501  43.0002  91.1789 0001318 259.8774  57.2402 15.06544050  1301","MEAN_MOTION_DOT":"-0.01156428","PERIAPSIS":"545.859","PERIOD":"95.583","TIME_SYSTEM":"UTC","SITE":"AFETR","LAUNCH_DATE":"2023-02-02","BSTAR":"-0.08365600000000","OBJECT_NAME":"STARLINK-5367","GP_ID":"228826605","INCLINATION":"43.0002","DECAY_DATE":null,"ARG_OF_PERICENTER":"259.8774"},{"TIME_SYSTEM":"UTC","MEAN_MOTION_DOT":"-0.01175313","PERIAPSIS":"540.600","TLE_LINE2":"2 55569  42.9964 117.7516 0001292 262.0312 226.4496 15.08268004  1305","MEAN_ANOMALY":"226.4496","PERIOD":"95.474","DECAY_DATE":null,"ARG_OF_PERICENTER":"262.0312","LAUNCH_DATE":"2023-02-12","SITE":"AFETR","GP_ID":"228825861","INCLINATION":"42.9964","OBJECT_NAME":"STARLINK-5749","BSTAR":"-0.08121500000000","MEAN_MOTION":"15.08268004","EPHEMERIS_TYPE":"0","MEAN_ELEMENT_THEORY":"SGP4","ELEMENT_SET_NO":"999","TLE_LINE1":"1 55569U 23020A   23083.91668981 -.01175313  00000-0 -81215-1 0  9992","CENTER_NAME":"EARTH","CLASSIFICATION_TYPE":"U","REF_FRAME":"TEME","NORAD_CAT_ID":"55569","REV_AT_EPOCH":"130","MEAN_MOTION_DDOT":"0.0000000000000","FILE":"3870109","RA_OF_ASC_NODE":"117.7516","APOAPSIS":"542.388","EPOCH":"2023-03-24T22:00:01.999584","ECCENTRICITY":"0.00012920","OBJECT_TYPE":"PAYLOAD","OBJECT_ID":"2023-020A","SEMIMAJOR_AXIS":"6919.629","RCS_SIZE":"LARGE","COUNTRY_CODE":"US"},{"FILE":"3870109","APOAPSIS":"542.835","RA_OF_ASC_NODE":"117.7751","NORAD_CAT_ID":"55570","REF_FRAME":"TEME","MEAN_MOTION_DDOT":"0.0000000000000","REV_AT_EPOCH":"130","SEMIMAJOR_AXIS":"6920.076","RCS_SIZE":"LARGE","COUNTRY_CODE":"US","ECCENTRICITY":"0.00012920","EPOCH":"2023-03-24T22:00:01.999584","OBJECT_ID":"2023-020B","OBJECT_TYPE":"PAYLOAD","MEAN_ELEMENT_THEORY":"SGP4","ELEMENT_SET_NO":"999","TLE_LINE1":"1 55570U 23020B   23083.91668981 -.01175590  00000-0 -81563-1 0  9997","MEAN_MOTION":"15.08121879","EPHEMERIS_TYPE":"0","CLASSIFICATION_TYPE":"U","CENTER_NAME":"EARTH","DECAY_DATE":null,"ARG_OF_PERICENTER":"265.6010","GP_ID":"228826113","INCLINATION":"42.9965","OBJECT_NAME":"STARLINK-5737","BSTAR":"-0.08156300000000","SITE":"AFETR","LAUNCH_DATE":"2023-02-12","TIME_SYSTEM":"UTC","PERIOD":"95.483","TLE_LINE2":"2 55570  42.9965 117.7751 0001292 265.6010 213.2269 15.08121879  1303","PERIAPSIS":"541.047","MEAN_MOTION_DOT":"-0.01175590","MEAN_ANOMALY":"213.2269"},{"DECAY_DATE":null,"ARG_OF_PERICENTER":"263.6646","SITE":"AFETR","LAUNCH_DATE":"2023-02-12","BSTAR":"-0.08073500000000","GP_ID":"228826857","INCLINATION":"42.9959","OBJECT_NAME":"STARLINK-5739","TIME_SYSTEM":"UTC","MEAN_ANOMALY":"244.0116","TLE_LINE2":"2 55571  42.9959 117.7056 0001237 263.6646 244.0116 15.08584597  1300","PERIAPSIS":"539.670","MEAN_MOTION_DOT":"-0.01178323","PERIOD":"95.454","MEAN_MOTION_DDOT":"0.0000000000000","REV_AT_EPOCH":"130","NORAD_CAT_ID":"55571","REF_FRAME":"TEME","RA_OF_ASC_NODE":"117.7056","APOAPSIS":"541.382","FILE":"3870109","OBJECT_ID":"2023-020C","OBJECT_TYPE":"PAYLOAD","ECCENTRICITY":"0.00012370","EPOCH":"2023-03-24T22:00:01.999584","COUNTRY_CODE":"US","SEMIMAJOR_AXIS":"6918.661","RCS_SIZE":"LARGE","MEAN_MOTION":"15.08584597","EPHEMERIS_TYPE":"0","TLE_LINE1":"1 55571U 23020C   23083.91668981 -.01178323  00000-0 -80735-1 0  9995","ELEMENT_SET_NO":"999","MEAN_ELEMENT_THEORY":"SGP4","CENTER_NAME":"EARTH","CLASSIFICATION_TYPE":"U"},{"COUNTRY_CODE":"US","RCS_SIZE":"LARGE","SEMIMAJOR_AXIS":"6918.179","OBJECT_ID":"2023-020D","OBJECT_TYPE":"PAYLOAD","ECCENTRICITY":"0.00012310","EPOCH":"2023-03-24T22:00:01.999584","APOAPSIS":"540.896","RA_OF_ASC_NODE":"117.6779","FILE":"3870109","MEAN_MOTION_DDOT":"0.0000000000000","REV_AT_EPOCH":"130","NORAD_CAT_ID":"55572","REF_FRAME":"TEME","CLASSIFICATION_TYPE":"U","CENTER_NAME":"EARTH","TLE_LINE1":"1 55572U 23020D   23083.91668981 -.01175222  00000-0 -80155-1 0  9997","MEAN_ELEMENT_THEORY":"SGP4","ELEMENT_SET_NO":"999","MEAN_MOTION":"15.08742226","EPHEMERIS_TYPE":"0","BSTAR":"-0.08015500000000","INCLINATION":"42.9967","GP_ID":"228825611","OBJECT_NAME":"STARLINK-5732","SITE":"AFETR","LAUNCH_DATE":"2023-02-12","ARG_OF_PERICENTER":"269.5606","DECAY_DATE":null,"PERIOD":"95.444","MEAN_ANOMALY":"249.7356","TLE_LINE2":"2 55572  42.9967 117.6779 0001231 269.5606 249.7356 15.08742226  1309","MEAN_MOTION_DOT":"-0.01175222","PERIAPSIS":"539.193","TIME_SYSTEM":"UTC"},{"TIME_SYSTEM":"UTC","TLE_LINE2":"2 55573  42.9962 117.6961 0001251 275.2195 236.4028 15.08630387  1300","PERIAPSIS":"539.521","MEAN_MOTION_DOT":"-0.01176294","MEAN_ANOMALY":"236.4028","PERIOD":"95.451","ARG_OF_PERICENTER":"275.2195","DECAY_DATE":null,"SITE":"AFETR","LAUNCH_DATE":"2023-02-12","OBJECT_NAME":"STARLINK-5738","GP_ID":"228825362","INCLINATION":"42.9962","BSTAR":"-0.08048200000000","EPHEMERIS_TYPE":"0","MEAN_MOTION":"15.08630387","MEAN_ELEMENT_THEORY":"SGP4","ELEMENT_SET_NO":"999","TLE_LINE1":"1 55573U 23020E   23083.91668981 -.01176294  00000-0 -80482-1 0  9991","CENTER_NAME":"EARTH","CLASSIFICATION_TYPE":"U","NORAD_CAT_ID":"55573","REF_FRAME":"TEME","MEAN_MOTION_DDOT":"0.0000000000000","REV_AT_EPOCH":"130","FILE":"3870109","RA_OF_ASC_NODE":"117.6961","APOAPSIS":"541.252","ECCENTRICITY":"0.00012510","EPOCH":"2023-03-24T22:00:01.999584","OBJECT_ID":"2023-020E","OBJECT_TYPE":"PAYLOAD","RCS_SIZE":"LARGE","SEMIMAJOR_AXIS":"6918.521","COUNTRY_CODE":"US"},{"EPHEMERIS_TYPE":"0","MEAN_MOTION":"15.09942810","TLE_LINE1":"1 55574U 23020F   23083.91668981 -.01173097  00000-0 -77383-1 0  9996","MEAN_ELEMENT_THEORY":"SGP4","ELEMENT_SET_NO":"999","CENTER_NAME":"EARTH","CLASSIFICATION_TYPE":"U","MEAN_MOTION_DDOT":"0.0000000000000","REV_AT_EPOCH":"130","REF_FRAME":"TEME","NORAD_CAT_ID":"55574","APOAPSIS":"537.260","RA_OF_ASC_NODE":"117.5090","FILE":"3870109","OBJECT_TYPE":"PAYLOAD","OBJECT_ID":"2023-020F","EPOCH":"2023-03-24T22:00:01.999584","ECCENTRICITY":"0.00012780","COUNTRY_CODE":"US","RCS_SIZE":"LARGE","SEMIMAJOR_AXIS":"6914.512","TIME_SYSTEM":"UTC","MEAN_ANOMALY":"331.6415","MEAN_MOTION_DOT":"-0.01173097","PERIAPSIS":"535.493","TLE_LINE2":"2 55574  42.9964 117.5090 0001278 258.3597 331.6415 15.09942810  1308","PERIOD":"95.368","DECAY_DATE":null,"ARG_OF_PERICENTER":"258.3597","LAUNCH_DATE":"2023-02-12","SITE":"AFETR","BSTAR":"-0.07738300000000","OBJECT_NAME":"STARLINK-5747","GP_ID":"228826613","INCLINATION":"42.9964"},{"MEAN_MOTION_DDOT":"0.0000000000000","REV_AT_EPOCH":"130","NORAD_CAT_ID":"55575","REF_FRAME":"TEME","RA_OF_ASC_NODE":"117.5631","APOAPSIS":"538.314","FILE":"3870109","OBJECT_ID":"2023-020G","OBJECT_TYPE":"PAYLOAD","ECCENTRICITY":"0.00011830","EPOCH":"2023-03-24T22:00:01.999584","COUNTRY_CODE":"US","SEMIMAJOR_AXIS":"6915.631","RCS_SIZE":"LARGE","EPHEMERIS_TYPE":"0","MEAN_MOTION":"15.09576186","TLE_LINE1":"1 55575U 23020G   23083.91668981 -.01177377  00000-0 -78485-1 0  9996","MEAN_ELEMENT_THEORY":"SGP4","ELEMENT_SET_NO":"999","CENTER_NAME":"EARTH","CLASSIFICATION_TYPE":"U","DECAY_DATE":null,"ARG_OF_PERICENTER":"263.2194","SITE":"AFETR","LAUNCH_DATE":"2023-02-12","BSTAR":"-0.07848500000000","INCLINATION":"42.9964","GP_ID":"228826358","OBJECT_NAME":"STARLINK-5745","TIME_SYSTEM":"UTC","MEAN_ANOMALY":"303.8816","TLE_LINE2":"2 55575  42.9964 117.5631 0001183 263.2194 303.8816 15.09576186  1308","PERIAPSIS":"536.678","MEAN_MOTION_DOT":"-0.01177377","PERIOD":"95.391"}];
